start=new Date('2023-04-02T00:00:00.000Z').valueOf();
sats=[{"SITE":"AFETR","EPOCH":"2023-04-01T18:04:09.106752","APOAPSIS":"547.753","INCLINATION":"53.0526","CENTER_NAME":"EARTH","NORAD_CAT_ID":"46058","REV_AT_EPOCH":"14731","ECCENTRICITY":"0.00008810","FILE":"3877516","MEAN_ELEMENT_THEORY":"SGP4","MEAN_MOTION":"15.06423205","PERIOD":"95.591","CLASSIFICATION_TYPE":"U","TLE_LINE2":"2 46058  53.0526 253.2163 0000881 122.6926 237.4148 15.06423205147316","COUNTRY_CODE":"US","EPHEMERIS_TYPE":"0","MEAN_ANOMALY":"237.4148","REF_FRAME":"TEME","BSTAR":"0.00187040000000","PERIAPSIS":"546.532","GP_ID":"229274531","OBJECT_ID":"2020-055AH","OBJECT_TYPE":"PAYLOAD","SEMIMAJOR_AXIS":"6925.277","RA_OF_ASC_NODE":"253.2163","MEAN_MOTION_DOT":"0.00027705","TIME_SYSTEM":"UTC","MEAN_MOTION_DDOT":"0.0000000000000","TLE_LINE1":"1 46058U 20055AH  23091.75288318  .00027705  00000-0  18704-2 0  9995","RCS_SIZE":"LARGE","ELEMENT_SET_NO":"999","DECAY_DATE":null,"OBJECT_NAME":"STARLINK-1564","ARG_OF_PERICENTER":"122.6926","LAUNCH_DATE":"2020-08-07"},{"OBJECT_NAME":"STARLINK-1570","ARG_OF_PERICENTER":"76.0486","DECAY_DATE":null,"ELEMENT_SET_NO":"999","TLE_LINE1":"1 46059U 20055AJ  23091.76029734  .00017238  00000-0  11742-2 0  9997","RCS_SIZE":"LARGE","LAUNCH_DATE":"2020-08-07","TIME_SYSTEM":"UTC","RA_OF_ASC_NODE":"253.1799","MEAN_MOTION_DOT":"0.00017238","MEAN_MOTION_DDOT":"0.0000000000000","MEAN_ANOMALY":"284.0655","PERIOD":"95.594","CLASSIFICATION_TYPE":"U","TLE_LINE2":"2 46059  53.0520 253.1799 0001367  76.0486 284.0655 15.06372519147275","COUNTRY_CODE":"US","EPHEMERIS_TYPE":"0","MEAN_ELEMENT_THEORY":"SGP4","MEAN_MOTION":"15.06372519","SEMIMAJOR_AXIS":"6925.433","OBJECT_TYPE":"PAYLOAD","OBJECT_ID":"2020-055AJ","GP_ID":"229274781","PERIAPSIS":"546.351","REF_FRAME":"TEME","BSTAR":"0.00117420000000","APOAPSIS":"548.244","INCLINATION":"53.0520","CENTER_NAME":"EARTH","EPOCH":"2023-04-01T18:14:49.690176","SITE":"AFETR","FILE":"3877516","ECCENTRICITY":"0.00013670","NORAD_CAT_ID":"46059","REV_AT_EPOCH":"14727"},{"MEAN_MOTION_DOT":"0.00029212","RA_OF_ASC_NODE":"253.2010","TIME_SYSTEM":"UTC","MEAN_MOTION_DDOT":"0.0000000000000","RCS_SIZE":"LARGE","TLE_LINE1":"1 46060U 20055AK  23091.75659900  .00029212  00000-0  19707-2 0  9996","DECAY_DATE":null,"ELEMENT_SET_NO":"999","ARG_OF_PERICENTER":"71.2229","OBJECT_NAME":"STARLINK-1572","LAUNCH_DATE":"2020-08-07","SITE":"AFETR","EPOCH":"2023-04-01T18:09:30.153600","INCLINATION":"53.0530","CENTER_NAME":"EARTH","APOAPSIS":"547.810","REV_AT_EPOCH":"14728","NORAD_CAT_ID":"46060","ECCENTRICITY":"0.00009580","FILE":"3877516","MEAN_MOTION":"15.06421946","MEAN_ELEMENT_THEORY":"SGP4","COUNTRY_CODE":"US","TLE_LINE2":"2 46060  53.0530 253.2010 0000958  71.2229 288.8864 15.06421946147286","CLASSIFICATION_TYPE":"U","EPHEMERIS_TYPE":"0","PERIOD":"95.591","MEAN_ANOMALY":"288.8864","BSTAR":"0.00197070000000","REF_FRAME":"TEME","GP_ID":"229275031","PERIAPSIS":"546.483","OBJECT_ID":"2020-055AK","OBJECT_TYPE":"PAYLOAD","SEMIMAJOR_AXIS":"6925.281"},{"RA_OF_ASC_NODE":"253.2382","MEAN_MOTION_DOT":"0.00018792","TIME_SYSTEM":"UTC","MEAN_MOTION_DDOT":"0.0000000000000","ARG_OF_PERICENTER":"101.9605","OBJECT_NAME":"STARLINK-1573","TLE_LINE1":"1 46061U 20055AL  23091.74919155  .00018792  00000-0  12769-2 0  9999","RCS_SIZE":"LARGE","DECAY_DATE":null,"ELEMENT_SET_NO":"999","LAUNCH_DATE":"2020-08-07","EPOCH":"2023-04-01T17:58:50.149920","CENTER_NAME":"EARTH","INCLINATION":"53.0517","APOAPSIS":"548.302","SITE":"AFETR","ECCENTRICITY":"0.00015990","FILE":"3877516","REV_AT_EPOCH":"14731","NORAD_CAT_ID":"46061","MEAN_ANOMALY":"258.1563","MEAN_MOTION":"15.06406248","MEAN_ELEMENT_THEORY":"SGP4","TLE_LINE2":"2 46061  53.0517 253.2382 0001599 101.9605 258.1563 15.06406248147313","COUNTRY_CODE":"US","CLASSIFICATION_TYPE":"U","EPHEMERIS_TYPE":"0","PERIOD":"95.592","OBJECT_TYPE":"PAYLOAD","OBJECT_ID":"2020-055AL","SEMIMAJOR_AXIS":"6925.329","REF_FRAME":"TEME","BSTAR":"0.00127690000000","PERIAPSIS":"546.087","GP_ID":"229274281"},{"LAUNCH_DATE":"2020-08-07","ELEMENT_SET_NO":"999","DECAY_DATE":null,"TLE_LINE1":"1 46062U 20055AM  23091.71602434  .00029585  00000-0  19946-2 0  9992","RCS_SIZE":"LARGE","OBJECT_NAME":"STARLINK-1574","ARG_OF_PERICENTER":"73.7144","MEAN_MOTION_DDOT":"0.0000000000000","TIME_SYSTEM":"UTC","MEAN_MOTION_DOT":"0.00029585","RA_OF_ASC_NODE":"253.3840","PERIAPSIS":"546.546","GP_ID":"229274032","BSTAR":"0.00199460000000","REF_FRAME":"TEME","SEMIMAJOR_AXIS":"6925.226","OBJECT_TYPE":"PAYLOAD","OBJECT_ID":"2020-055AM","PERIOD":"95.590","TLE_LINE2":"2 46062  53.0533 253.3840 0000787  73.7144 286.3932 15.06440011147278","EPHEMERIS_TYPE":"0","COUNTRY_CODE":"US","CLASSIFICATION_TYPE":"U","MEAN_ELEMENT_THEORY":"SGP4","MEAN_MOTION":"15.06440011","MEAN_ANOMALY":"286.3932","NORAD_CAT_ID":"46062","REV_AT_EPOCH":"14727","FILE":"3877516","ECCENTRICITY":"0.00007870","SITE":"AFETR","APOAPSIS":"547.636","INCLINATION":"53.0533","CENTER_NAME":"EARTH","EPOCH":"2023-04-01T17:11:04.502976"},{"RCS_SIZE":"LARGE","TLE_LINE1":"1 46063U 20055AN  23091.71234864  .00028853  00000-0  19476-2 0  9996","ELEMENT_SET_NO":"999","DECAY_DATE":null,"OBJECT_NAME":"STARLINK-1577","ARG_OF_PERICENTER":"75.4967","LAUNCH_DATE":"2020-08-07","MEAN_MOTION_DOT":"0.00028853","RA_OF_ASC_NODE":"253.4007","TIME_SYSTEM":"UTC","MEAN_MOTION_DDOT":"0.0000000000000","MEAN_ELEMENT_THEORY":"SGP4","MEAN_MOTION":"15.06407983","PERIOD":"95.592","TLE_LINE2":"2 46063  53.0524 253.4007 0001303  75.4967 284.6166 15.06407983147307","CLASSIFICATION_TYPE":"U","COUNTRY_CODE":"US","EPHEMERIS_TYPE":"0","MEAN_ANOMALY":"284.6166","REF_FRAME":"TEME","BSTAR":"0.00194760000000","GP_ID":"229275282","PERIAPSIS":"546.287","OBJECT_ID":"2020-055AN","OBJECT_TYPE":"PAYLOAD","SEMIMAJOR_AXIS":"6925.324","SITE":"AFETR","EPOCH":"2023-04-01T17:05:46.922496","APOAPSIS":"548.091","INCLINATION":"53.0524","CENTER_NAME":"EARTH","NORAD_CAT_ID":"46063","REV_AT_EPOCH":"14730","ECCENTRICITY":"0.00013030","FILE":"3877516"},{"TIME_SYSTEM":"UTC","MEAN_MOTION_DOT":"0.00024455","RA_OF_ASC_NODE":"253.2530","MEAN_MOTION_DDOT":"0.0000000000000","OBJECT_NAME":"STARLINK-1583","ARG_OF_PERICENTER":"67.7209","ELEMENT_SET_NO":"999","DECAY_DATE":null,"RCS_SIZE":"LARGE","TLE_LINE1":"1 46064U 20055AP  23091.74552761  .00024455  00000-0  16536-2 0  9997","LAUNCH_DATE":"2020-08-07","APOAPSIS":"547.832","INCLINATION":"53.0523","CENTER_NAME":"EARTH","EPOCH":"2023-04-01T17:53:33.585504","SITE":"AFETR","FILE":"3877516","ECCENTRICITY":"0.00010310","NORAD_CAT_ID":"46064","REV_AT_EPOCH":"14731","MEAN_ANOMALY":"292.3889","PERIOD":"95.590","CLASSIFICATION_TYPE":"U","TLE_LINE2":"2 46064  53.0523 253.2530 0001031  67.7209 292.3889 15.06431243147312","COUNTRY_CODE":"US","EPHEMERIS_TYPE":"0","MEAN_ELEMENT_THEORY":"SGP4","MEAN_MOTION":"15.06431243","SEMIMAJOR_AXIS":"6925.253","OBJECT_TYPE":"PAYLOAD","OBJECT_ID":"2020-055AP","GP_ID":"229275532","PERIAPSIS":"546.404","BSTAR":"0.00165360000000","REF_FRAME":"TEME"},{"MEAN_MOTION_DDOT":"0.0000000000000","RA_OF_ASC_NODE":"233.5725","MEAN_MOTION_DOT":"0.00034431","TIME_SYSTEM":"UTC","LAUNCH_DATE":"2020-08-07","OBJECT_NAME":"STARLINK-1515","ARG_OF_PERICENTER":"83.2046","RCS_SIZE":"LARGE","TLE_LINE1":"1 46065U 20055AQ  23091.67270107  .00034431  00000-0  23154-2 0  9990","ELEMENT_SET_NO":"999","DECAY_DATE":null,"ECCENTRICITY":"0.00008850","FILE":"3877516","NORAD_CAT_ID":"46065","REV_AT_EPOCH":"14756","EPOCH":"2023-04-01T16:08:41.372448","APOAPSIS":"547.643","INCLINATION":"53.0530","CENTER_NAME":"EARTH","SITE":"AFETR","OBJECT_TYPE":"PAYLOAD","OBJECT_ID":"2020-055AQ","SEMIMAJOR_AXIS":"6925.165","BSTAR":"0.00231540000000","REF_FRAME":"TEME","PERIAPSIS":"546.417","GP_ID":"229273782","MEAN_ANOMALY":"276.9043","MEAN_ELEMENT_THEORY":"SGP4","MEAN_MOTION":"15.06459939","PERIOD":"95.588","TLE_LINE2":"2 46065  53.0530 233.5725 0000885  83.2046 276.9043 15.06459939147565","CLASSIFICATION_TYPE":"U","COUNTRY_CODE":"US","EPHEMERIS_TYPE":"0"},{"APOAPSIS":"547.729","INCLINATION":"53.0516","CENTER_NAME":"EARTH","EPOCH":"2023-04-01T21:01:58.687680","SITE":"AFETR","FILE":"3877516","ECCENTRICITY":"0.00010480","NORAD_CAT_ID":"46066","REV_AT_EPOCH":"14760","MEAN_ANOMALY":"316.6786","PERIOD":"95.588","TLE_LINE2":"2 46066  53.0516 232.6628 0001048  43.4286 316.6786 15.06468693147606","EPHEMERIS_TYPE":"0","COUNTRY_CODE":"US","CLASSIFICATION_TYPE":"U","MEAN_ELEMENT_THEORY":"SGP4","MEAN_MOTION":"15.06468693","SEMIMAJOR_AXIS":"6925.138","OBJECT_ID":"2020-055AR","OBJECT_TYPE":"PAYLOAD","GP_ID":"229274532","PERIAPSIS":"546.277","BSTAR":"0.00258150000000","REF_FRAME":"TEME","TIME_SYSTEM":"UTC","RA_OF_ASC_NODE":"232.6628","MEAN_MOTION_DOT":"0.00038452","MEAN_MOTION_DDOT":"0.0000000000000","OBJECT_NAME":"STARLINK-1525","ARG_OF_PERICENTER":"43.4286","ELEMENT_SET_NO":"999","DECAY_DATE":null,"TLE_LINE1":"1 46066U 20055AR  23091.87637370  .00038452  00000-0  25815-2 0  9995","RCS_SIZE":"LARGE","LAUNCH_DATE":"2020-08-07"},{"LAUNCH_DATE":"2020-08-07","ELEMENT_SET_NO":"999","DECAY_DATE":null,"TLE_LINE1":"1 46067U 20055AS  23091.68005851  .00028930  00000-0  19504-2 0  9996","RCS_SIZE":"LARGE","ARG_OF_PERICENTER":"31.9263","OBJECT_NAME":"STARLINK-1529","MEAN_MOTION_DDOT":"0.0000000000000","TIME_SYSTEM":"UTC","MEAN_MOTION_DOT":"0.00028930","RA_OF_ASC_NODE":"233.5302","PERIAPSIS":"546.574","GP_ID":"229274782","BSTAR":"0.00195040000000","REF_FRAME":"TEME","SEMIMAJOR_AXIS":"6925.191","OBJECT_ID":"2020-055AS","OBJECT_TYPE":"PAYLOAD","COUNTRY_CODE":"US","TLE_LINE2":"2 46067  53.0551 233.5302 0000696  31.9263 328.1768 15.06451462147581","CLASSIFICATION_TYPE":"U","EPHEMERIS_TYPE":"0","PERIOD":"95.589","MEAN_MOTION":"15.06451462","MEAN_ELEMENT_THEORY":"SGP4","MEAN_ANOMALY":"328.1768","REV_AT_EPOCH":"14758","NORAD_CAT_ID":"46067","FILE":"3877516","ECCENTRICITY":"0.00006960","SITE":"AFETR","INCLINATION":"53.0551","CENTER_NAME":"EARTH","APOAPSIS":"547.538","EPOCH":"2023-04-01T16:19:17.055264"}];
